TIANMU-1 21             
1 58662U 23208C   26156.83945870  .00010661  00000+0  31740-3 0  9997
2 58662  97.4495 276.3392 0006902   9.3071 350.8299 15.34868845135823
TIANMU-1 22             
1 58663U 23208D   26156.83085266  .00008248  00000+0  27882-3 0  9992
2 58663  97.4491 273.0206 0004262  41.3144 318.8419 15.30893648135599
TIANMU-1 15             
1 58700U 24004A   26156.82723508  .00006246  00000+0  23905-3 0  9994
2 58700  97.4672 343.0162 0007795  39.9685 320.2126 15.26901703134046
TIANMU-1 16             
1 58701U 24004B   26156.87997161  .00006294  00000+0  24290-3 0  9999
2 58701  97.4619 342.3187 0006889  44.4010 315.7780 15.26627926134051
TIANMU-1 17             
1 58702U 24004C   26156.86542045  .00006600  00000+0  25456-3 0  9992
2 58702  97.4647 342.7849 0006542  49.7465 310.4345 15.26627934134047
TIANMU-1 18             
1 58703U 24004D   26156.84372150  .00006342  00000+0  24290-3 0  9997
2 58703  97.4664 343.0115 0005037  48.8413 311.3260 15.26886943134041
INSAT-3DS               
1 58990U 24033A   26156.80099507 -.00000144  00000+0  00000+0 0  9999
2 58990   0.0087 295.5337 0001377 136.8106 192.3090  1.00274104 46952
METEOR-M2 4             
1 59051U 24039A   26156.85836025  .00000033  00000+0  34324-4 0  9990
2 59051  98.7006 116.2992 0006617 193.9138 166.1859 14.22428407117656
GOES 19                 
1 60133U 24119A   26156.61946917 -.00000236  00000+0  00000+0 0  9993
2 60133   0.0379 148.5040 0000653 341.6240 271.7430  1.00270243  6841
MTG-S1                  
1 64723U 25143A   26156.77642764 -.00000019  00000+0  00000+0 0  9999
2 64723   0.6135 336.4267 0001142  35.5129 158.3030  1.00271627  3305
METOP-SGA1              
1 65159U 25172A   26156.10248233  .00000054  00000+0  44615-4 0  9998
2 65159  98.6647 216.0502 0000977  86.3817 273.7472 14.21507730 42075
FENGYUN 3H              
1 65815U 25219A   26156.55505521  .00000069  00000+0  53043-4 0  9995
2 65815  98.6765  97.5505 0001643  86.8306 273.3058 14.19918325 35733
