OBJECT_NAME,OBJECT_ID,EPOCH,MEAN_MOTION,ECCENTRICITY,INCLINATION,RA_OF_ASC_NODE,ARG_OF_PERICENTER,MEAN_ANOMALY,EPHEMERIS_TYPE,CLASSIFICATION_TYPE,NORAD_CAT_ID,ELEMENT_SET_NO,REV_AT_EPOCH,BSTAR,MEAN_MOTION_DOT,MEAN_MOTION_DDOT
TIANMU-1 21,2023-208C,2026-06-05T20:08:49.231680,15.34868845,.0006902,97.4495,276.3392,9.3071,350.8299,0,U,58662,999,13582,.3174E-3,.10661E-3,0
TIANMU-1 22,2023-208D,2026-06-05T19:56:25.669824,15.30893648,.0004262,97.4491,273.0206,41.3144,318.8419,0,U,58663,999,13559,.27882E-3,.8248E-4,0
TIANMU-1 15,2024-004A,2026-06-05T19:51:13.110912,15.26901703,.0007795,97.4672,343.0162,39.9685,320.2126,0,U,58700,999,13404,.23905E-3,.6246E-4,0
TIANMU-1 16,2024-004B,2026-06-05T21:07:09.547104,15.26627926,.0006889,97.4619,342.3187,44.4010,315.7780,0,U,58701,999,13405,.2429E-3,.6294E-4,0
TIANMU-1 17,2024-004C,2026-06-05T20:46:12.326880,15.26627934,.0006542,97.4647,342.7849,49.7465,310.4345,0,U,58702,999,13404,.25456E-3,.66E-4,0
TIANMU-1 18,2024-004D,2026-06-05T20:14:57.537600,15.26886943,.0005037,97.4664,343.0115,48.8413,311.3260,0,U,58703,999,13404,.2429E-3,.6342E-4,0
INSAT-3DS,2024-033A,2026-06-05T19:13:25.974048,1.00274104,.0001377,0.0087,295.5337,136.8106,192.3090,0,U,58990,999,4695,0,-.144E-5,0
METEOR-M2 4,2024-039A,2026-06-05T20:36:02.325600,14.22428407,.0006617,98.7006,116.2992,193.9138,166.1859,0,U,59051,999,11765,.34324E-4,.33E-6,0
GOES 19,2024-119A,2026-06-05T14:52:02.136288,1.00270243,.0000653,0.0379,148.5040,341.6240,271.7430,0,U,60133,999,684,0,-.236E-5,0
MTG-S1,2025-143A,2026-06-05T18:38:03.348096,1.00271627,.0001142,0.6135,336.4267,35.5129,158.3030,0,U,64723,999,330,0,-.19E-6,0
METOP-SGA1,2025-172A,2026-06-05T02:27:34.473312,14.21507730,.0000977,98.6647,216.0502,86.3817,273.7472,0,U,65159,999,4207,.44615E-4,.54E-6,0
FENGYUN 3H,2025-219A,2026-06-05T13:19:16.770144,14.19918325,.0001643,98.6765,97.5505,86.8306,273.3058,0,U,65815,999,3573,.53043E-4,.69E-6,0
